[{"OBJECT_NAME":"STARLINK-33976","OBJECT_ID":"2025-093Y","EPOCH":"2026-03-09T10:29:17.983680","MEAN_MOTION":15.27624713,"ECCENTRICITY":0.00041869,"INCLINATION":43.0078,"RA_OF_ASC_NODE":79.2845,"ARG_OF_PERICENTER":284.0658,"MEAN_ANOMALY":75.9728,"EPHEMERIS_TYPE":0,"CLASSIFICATION_TYPE":"U","NORAD_CAT_ID":63858,"ELEMENT_SET_NO":999,"REV_AT_EPOCH":4777,"BSTAR":0.0012395216,"MEAN_MOTION_DOT":0.00034057,"MEAN_MOTION_DDOT":0},{"OBJECT_NAME":"CZ-6A DEB","OBJECT_ID":"2022-151SD","EPOCH":"2026-03-09T21:25:15.700512","MEAN_MOTION":15.24469357,"ECCENTRICITY":0.00248717,"INCLINATION":98.6538,"RA_OF_ASC_NODE":157.5128,"ARG_OF_PERICENTER":174.047,"MEAN_ANOMALY":186.1065,"EPHEMERIS_TYPE":0,"CLASSIFICATION_TYPE":"U","NORAD_CAT_ID":54940,"ELEMENT_SET_NO":999,"REV_AT_EPOCH":17680,"BSTAR":0.0087519903,"MEAN_MOTION_DOT":0.00223015,"MEAN_MOTION_DDOT":0}]
